IRIDIUM 119             
1 42959U 17061E   23227.08742451  .00000283  00000+0  93829-4 0  9998
2 42959  86.3939  98.6968 0002214  92.0782 268.0668 14.34217881306163
IRIDIUM 107             
1 42960U 17061F   23227.17623467  .00000316  00000+0  10573-3 0  9996
2 42960  86.3939  98.6745 0002358  88.0568 272.0898 14.34219771306197
IRIDIUM 132             
1 42961U 17061G   23227.25234852  .00000304  00000+0  10131-3 0  9999
2 42961  86.3939  98.6291 0002321  89.7687 270.3774 14.34218269306199
IRIDIUM 136             
1 42962U 17061H   23227.07475290  .00000302  00000+0  10068-3 0  9990
2 42962  86.3940  98.7054 0001894  89.6831 270.4582 14.34216727306188
IRIDIUM 139             
1 42963U 17061J   23227.08109721  .00000309  00000+0  10323-3 0  9996
2 42963  86.3942  98.7485 0002328  88.4335 271.7127 14.34218654306199
IRIDIUM 125             
1 42964U 17061K   23227.13818043  .00000316  00000+0  10590-3 0  9991
2 42964  86.3942  98.7665 0002246  92.2970 267.8483 14.34218859306218
IRIDIUM 135             
1 43070U 17083A   23228.01929244  .00000112  00000+0  33037-4 0  9994
2 43070  86.3960  35.0496 0002276  82.4055 277.7400 14.34218539295638
IRIDIUM 138             
1 43071U 17083B   23226.99814886  .00000117  00000+0  34725-4 0  9995
2 43071  86.3949  35.2324 0002166  96.5274 263.6169 14.34218261295475
